SCD 1                   
1 22490U 93009B   24045.20097573  .00000862  00000+0  18841-3 0  9996
2 22490  24.9702  77.0292 0042859 105.0474 311.0470 14.45156309637807
TECHSAT 1B (GO-32)      
1 25397U 98043D   24045.50380704  .00000298  00000+0  14978-3 0  9992
2 25397  98.9054  10.4933 0001946 125.9864 234.1494 14.23985795330037
SCD 2                   
1 25504U 98060A   24045.09909839  .00000897  00000+0  20302-3 0  9994
2 25504  24.9957 296.2655 0017192 102.6474  49.3505 14.44645619337006
LANDSAT 7               
1 25682U 99020A   24045.43675590  .00000980  00000+0  21118-3 0  9999
2 25682  97.9032  77.9944 0001450  79.7286  27.0468 14.60464150321132
DLR-TUBSAT              
1 25757U 99029B   24045.45846483  .00000449  00000+0  12307-3 0  9994
2 25757  98.5695   6.7622 0015414  69.4888 290.7959 14.51815239309441
TERRA                   
1 25994U 99068A   24045.50611873  .00001141  00000+0  24934-3 0  9998
2 25994  98.0647 112.5634 0002669  55.7058  68.0915 14.59590765285128
MAROC-TUBSAT            
1 27004U 01056D   24044.92022495  .00000013  00000+0  66894-4 0  9992
2 27004  99.7111 198.1341 0019972 170.8986 308.6415 13.70195163109190
AQUA                    
1 27424U 02022A   24045.52694677  .00002598  00000+0  56487-3 0  9992
2 27424  98.3169 354.5814 0001847 100.6054 320.7273 14.58869526158689
IRS-P6 (RESOURCESAT-1)  
1 28051U 03046A   24045.51629344 -.00000060  00000+0 -62778-5 0  9990
2 28051  98.3124 107.4467 0065259  20.0230  90.7501 14.35341784 58058
SHIYAN 1 (SY-1)         
1 28220U 04012A   24044.77791303  .00011204  00000+0  70721-3 0  9999
2 28220  97.9785  67.4461 0011610  92.7105 267.5452 15.09213044 81214
AURA                    
1 28376U 04026A   24044.91460622  .00002654  00000+0  58557-3 0  9991
2 28376  98.2386 350.7507 0002035  86.8376 273.3055 14.58165795 41561
IRS-P5 (CARTOSAT-1)     
1 28649U 05017A   24045.36783347  .00003300  00000+0  38043-3 0  9994
2 28649  97.6333  93.8235 0002167  56.0964 304.0458 14.86321228 16837
SINAH 1                 
1 28893U 05043D   24044.89272382  .00001198  00000+0  24520-3 0  9991
2 28893  98.1754 169.7951 0016067  73.8421 286.4547 14.62502355975560
EROS B                  
1 29079U 06014A   24045.44923052  .00027957  00000+0  14830-2 0  9999
2 29079  97.3236 163.9533 0007719 280.4157  79.6205 15.15291423988782
RESURS-DK 1             
1 29228U 06021A   24045.21576864  .00005775  00000+0  39789-3 0  9998
2 29228  69.9370  19.4801 0006619 235.5447 124.5090 15.06371172973670
ARIRANG-2 (KOMPSAT-2)   
1 29268U 06031A   24045.50403132  .00000803  00000+0  16377-3 0  9997
2 29268  97.8778 259.3876 0013443 258.6488 161.8132 14.63405928936654
LAPAN-TUBSAT            
1 29709U 07001A   24045.47011283  .00001665  00000+0  20808-3 0  9994
2 29709  98.0542  19.4314 0014048  83.8536 276.4278 14.83663941924465
HAIYANG-1B              
1 31113U 07010A   24045.01899441  .00000320  00000+0  13847-3 0  9998
2 31113  98.2958  52.7224 0013052 210.3855 149.6573 14.30542189879229
COSMO-SKYMED 1          
1 31598U 07023A   24045.38916622  .00000261  00000+0  39278-4 0  9991
2 31598  97.8827 230.3527 0001340  80.3449 279.7915 14.82173312902853
TERRASAR-X              
1 31698U 07026A   24044.48499522  .00004068  00000+0  19682-3 0  9995
2 31698  97.4463  53.4089 0001993  86.8226 273.3237 15.19148517923468
WORLDVIEW-1 (WV-1)      
1 32060U 07041A   24045.09399232  .00017804  00000+0  73005-3 0  9992
2 32060  97.3826 166.3197 0002063   9.8449 350.2828 15.24312518912907
YAOGAN 3                
1 32289U 07055A   24045.47589932  .00004708  00000+0  56802-3 0  9995
2 32289  97.9012  71.9645 0001398  77.0947 283.0423 14.84276449878971
COSMO-SKYMED 2          
1 32376U 07059A   24045.49047171  .00001365  00000+0  17800-3 0  9993
2 32376  97.8824 230.4518 0001411  81.8030 278.3343 14.82150377875627
RADARSAT-2              
1 32382U 07061A   24045.46334282  .00000204  00000+0  96091-4 0  9993
2 32382  98.5800  53.6047 0001183  89.2046 270.9272 14.29985176844059
CARTOSAT-2A             
1 32783U 08021A   24045.41060739  .00001802  00000+0  25215-3 0  9997
2 32783  97.8841 106.5067 0012424   7.1426 352.9960 14.78731172852718
HUANJING 1A (HJ-1A)     
1 33320U 08041A   24045.47319517  .00002975  00000+0  40505-3 0  9995
2 33320  97.6362  58.6348 0021826  57.6043 302.7277 14.79272062832061
HUANJING 1B (HJ-1B)     
1 33321U 08041B   24045.44297768  .00002277  00000+0  30518-3 0  9994
2 33321  97.6337  63.1273 0040228 100.0327 260.5429 14.79755396832074
GEOEYE 1                
1 33331U 08042A   24045.50515403  .00001354  00000+0  26517-3 0  9991
2 33331  98.0596 120.1021 0006733 185.0978 175.0158 14.64349783825210
THEOS                   
1 33396U 08049A   24045.50684746  .00000183  00000+0  10622-3 0  9995
2 33396  98.6737 113.9481 0000986  93.2106 266.9183 14.20029120796825
COSMO-SKYMED 3          
1 33412U 08054A   24045.48917673  .00008398  00000+0  74835-3 0  9997
2 33412  97.8812 241.2975 0015057 266.7050  93.2448 14.96184700828787
YAOGAN 4                
1 33446U 08061A   24045.39186679  .00002961  00000+0  40538-3 0  9999
2 33446  97.8712 339.7502 0014540 333.9491  26.0987 14.79168494819251
GOSAT (IBUKI)           
1 33492U 09002A   24044.89275502  .00002442  00000+0  43857-3 0  9995
2 33492  98.0251 158.8146 0001119  95.3823 264.7510 14.67573592806168
YAOGAN 6                
1 34839U 09021A   24045.49488277  .00024414  00000+0  55796-3 0  9992
2 34839  97.1583  14.5629 0016968 271.3038  88.6266 15.42681521824356
DEIMOS-1                
1 35681U 09041A   24045.50922244  .00001448  00000+0  23263-3 0  9995
2 35681  97.6771 234.0895 0002782  76.5686 283.5832 14.73009654781107
DUBAISAT-1              
1 35682U 09041B   24045.36567349  .00003109  00000+0  51416-3 0  9998
2 35682  97.8845 185.3460 0010030 293.0457  66.9692 14.70993592779435
OCEANSAT-2              
1 35931U 09051A   24045.45483973  .00000419  00000+0  31331-3 0  9991
2 35931  98.2845 106.1039 0017574 121.7752 238.5129 13.99434699759916
WORLDVIEW-2 (WV-2)      
1 35946U 09055A   24045.48591928  .00000432  00000+0  15821-3 0  9995
2 35946  98.4249 120.7842 0000320 327.5842  32.5326 14.37602773753113
SMOS                    
1 36036U 09059A   24045.49794401  .00000843  00000+0  28296-3 0  9998
2 36036  98.4414 234.2309 0001179  81.0428 279.0893 14.39742350750754
YAOGAN 7                
1 36110U 09069A   24045.22866775  .00001369  00000+0  20579-3 0  9997
2 36110  98.1249 280.5528 0024256 265.8868  93.9568 14.75970650763604
TANDEM-X                
1 36605U 10030A   24044.55086214  .00003410  00000+0  16550-3 0  9996
2 36605  97.4467  53.4740 0001900  99.9690 260.1759 15.19149097756895
CARTOSAT-2B             
1 36795U 10035A   24045.44741303  .00001819  00000+0  25434-3 0  9999
2 36795  97.8783 106.2701 0013981  80.7149 279.5643 14.78737909733769
YAOGAN 10               
1 36834U 10038A   24045.50460955  .00001697  00000+0  21816-3 0  9998
2 36834  97.9573  63.3168 0001444  81.3239  73.3127 14.82469413730670
COSMO-SKYMED 4          
1 37216U 10060A   24045.50311116  .00001361  00000+0  17751-3 0  9993
2 37216  97.8826 230.4653 0001342  85.3017 274.8349 14.82151214718178
RESOURCESAT-2           
1 37387U 11015A   24045.50672581  .00000391  00000+0  19761-3 0  9994
2 37387  98.5929 114.6337 0005435 111.7462 248.4295 14.21682454665419
HAIYANG-2A              
1 37781U 11043A   24045.46926704  .00000020  00000+0  62501-4 0  9997
2 37781  99.3263  50.9821 0001466  71.5846 288.5465 13.78768104629283
RASAT                   
1 37791U 11044D   24045.51361240  .00001387  00000+0  26081-3 0  9992
2 37791  98.0793 138.9775 0021787  18.2015 352.5019 14.66039786668024
SRMSAT                  
1 37841U 11058D   24044.72373668  .00000750  00000+0  26582-3 0  9991
2 37841  19.9702 189.5224 0011768 165.8793 222.1722 14.11036071636968
YAOGAN 13               
1 37941U 11072A   24045.47570857  .00032051  00000+0  89498-3 0  9994
2 37941  97.7106  22.4571 0004216  88.0399 272.1327 15.36651904677438
PLEIADES 1A             
1 38012U 11076F   24045.52820343  .00000995  00000+0  22364-3 0  9993
2 38012  98.1745 121.8327 0000993  89.3393  34.9365 14.58571657647567
ZIYUAN 1-02C (ZY 1-02C) 
1 38038U 11079A   24045.46419735  .00001042  00000+0  36903-3 0  9994
2 38038  98.5130 115.3632 0006185 345.8457 104.5270 14.36597125636600
ZIYUAN 3-1 (ZY 3-1)     
1 38046U 12001A   24045.48182561  .00018506  00000+0  68228-3 0  9993
2 38046  97.2643 110.3814 0004337 207.1326 152.9688 15.27841068672039
ARIRANG-3 (KOMPSAT-3)   
1 38338U 12025B   24045.52388400  .00001574  00000+0  31994-3 0  9995
2 38338  98.2489 351.7989 0008954 266.8372  93.1805 14.62486543626664
KANOPUS-V 1             
1 38707U 12039A   24044.82280930  .00025237  00000+0  64110-3 0  9999
2 38707  97.4907 339.5346 0003293  97.4049 262.7570 15.39626041642026
EXACTVIEW-1 (ADS-1B)    
1 38709U 12039C   24045.19551248  .00000400  00000+0  19268-3 0  9994
2 38709  98.9535 134.7445 0011894 111.3521 248.8928 14.24375825601103
SPOT 6                  
1 38755U 12047A   24045.45099619  .00000973  00000+0  21883-3 0  9993
2 38755  98.1594 113.9047 0001081  84.4841 275.6482 14.58585098608630
PLEIADES 1B             
1 39019U 12068A   24045.46972867  .00000966  00000+0  21775-3 0  9998
2 39019  98.2080 121.6076 0001143  90.4337 269.6993 14.58536061596406
GOKTURK 2               
1 39030U 12073A   24045.46051899  .00001273  00000+0  20258-3 0  9997
2 39030  97.7710 271.6695 0001040 108.4218 251.7104 14.73647144598714
LANDSAT 8               
1 39084U 13008A   24045.46310901  .00000977  00000+0  22680-3 0  9998
2 39084  98.1982 117.0509 0000972  93.9007 266.2302 14.57123728585393
SARAL                   
1 39086U 13009A   24044.88057449  .00000383  00000+0  15775-3 0  9999
2 39086  98.5480 231.7178 0000994 316.4437  43.6668 14.32346321573288
GAOFEN-1                
1 39150U 13018A   24045.45070931  .00002054  00000+0  30122-3 0  9996
2 39150  98.0020 119.0627 0021357 130.3772 229.9306 14.76505694582302
